NORAD_CAT_ID,OBJECT_NAME,OBJECT_TYPE,EPOCH,MEAN_MOTION,ECCENTRICITY,INCLINATION,RA_OF_ASC_NODE,ARG_OF_PERICENTER,MEAN_ANOMALY,BSTAR,MEAN_MOTION_DOT,MEAN_MOTION_DDOT,TLE_LINE0,TLE_LINE1,TLE_LINE2,SEMIMAJOR_AXIS,PERIOD,APOGEE,PERIGEE,DECAYED
52836.0,STARLINK-4043,PAYLOAD,2023-11-12 22:43:50,15.08836446,0.000194,53.2165,239.7804,124.3647,235.7528,0.00012056,1.631e-05,0.0,0 STARLINK-4043,1 52836U 22062G   23316.94711738  .00001631  00000-0  12056-3 0  9999,2 52836  53.2165 239.7804 0001940 124.3647 235.7528 15.08836446 77801,6917.891,95.438,541.098,538.414,0.0
52836.0,STARLINK-4043,PAYLOAD,2023-11-13 11:26:55,15.08844171,0.0001545,53.2168,237.4055,102.0257,258.0909,0.00023059,3.384e-05,0.0,0 STARLINK-4043,1 52836U 22062G   23317.47703633  .00003384  00000-0  23059-3 0  9995,2 52836  53.2168 237.4055 0001545 102.0257 258.0909 15.08844171 77881,6917.868,95.437,540.801,538.664,0.0
52836.0,STARLINK-4043,PAYLOAD,2023-11-13 19:23:51,15.08844075,0.0001755,53.2175,235.922,111.1476,248.9704,0.00016254,2.3e-05,0.0,0 STARLINK-4043,1 52836U 22062G   23317.80823706  .00002300  00000-0  16254-3 0  9992,2 52836  53.2175 235.9220 0001755 111.1476 248.9704 15.08844075 77933,6917.868,95.437,540.947,538.519,0.0
52836.0,STARLINK-4043,PAYLOAD,2023-11-14 04:56:10,15.0885419,0.0001649,53.2174,234.1376,100.1084,260.0094,0.00048427,7.431e-05,0.0,0 STARLINK-4043,1 52836U 22062G   23318.20567422  .00007431  00000-0  48427-3 0  9994,2 52836  53.2174 234.1376 0001649 100.1084 260.0094 15.08854190 77992,6917.837,95.437,540.843,538.561,0.0
52836.0,STARLINK-4043,PAYLOAD,2023-11-15 03:11:33,15.08862906,0.0001491,53.2173,229.9764,92.6492,267.4671,0.00055549,8.569e-05,0.0,0 STARLINK-4043,1 52836U 22062G   23319.13302828  .00008569  00000-0  55549-3 0  9990,2 52836  53.2173 229.9764 0001491  92.6492 267.4671 15.08862906 78130,6917.81,95.436,540.707,538.644,0.0
52836.0,STARLINK-4043,PAYLOAD,2023-11-15 20:40:48,15.08840687,0.0001162,53.2162,226.7024,98.153,261.9594,1.1514e-05,-1.05e-06,0.0,0 STARLINK-4043,1 52836U 22062G   23319.86167126 -.00000105  00000-0  11514-4 0  9994,2 52836  53.2162 226.7024 0001162  98.1530 261.9594 15.08840687 78248,6917.878,95.438,540.547,538.939,0.0
52836.0,STARLINK-4043,PAYLOAD,2023-11-16 03:02:21,15.08841543,0.0001484,53.2158,225.5118,84.4128,275.7034,7.3277e-05,8.78e-06,0.0,0 STARLINK-4043,1 52836U 22062G   23320.12663337  .00000878  00000-0  73277-4 0  9990,2 52836  53.2158 225.5118 0001484  84.4128 275.7034 15.08841543 78280,6917.876,95.437,540.767,538.714,0.0
52836.0,STARLINK-4043,PAYLOAD,2023-11-17 10:50:04,15.0883485,0.0001731,53.2159,219.5644,89.3536,270.7655,0.00011287,1.508e-05,0.0,0 STARLINK-4043,1 52836U 22062G   23321.45143930  .00001508  00000-0  11287-3 0  9992,2 52836  53.2159 219.5644 0001731  89.3536 270.7655 15.08834850 78489,6917.896,95.438,540.959,538.564,0.0
52836.0,STARLINK-4043,PAYLOAD,2023-11-17 17:11:36,15.08835356,0.0001637,53.215,218.3766,82.9943,277.1235,7.8591e-05,9.63e-06,0.0,0 STARLINK-4043,1 52836U 22062G   23321.71640038  .00000963  00000-0  78591-4 0  9998,2 52836  53.2150 218.3766 0001637  82.9943 277.1235 15.08835356 78520,6917.895,95.438,540.892,538.627,0.0
52836.0,STARLINK-4043,PAYLOAD,2023-11-18 10:40:51,15.08831342,0.0001637,53.214,215.1043,87.6623,272.4557,2.8888e-05,1.72e-06,0.0,0 STARLINK-4043,1 52836U 22062G   23322.44504568  .00000172  00000-0  28888-4 0  9992,2 52836  53.2140 215.1043 0001637  87.6623 272.4557 15.08831342 78637,6917.907,95.438,540.904,538.639,0.0
52836.0,STARLINK-4043,PAYLOAD,2023-11-19 02:34:43,15.0884061,0.0001535,53.2139,212.1301,90.2623,269.8545,3.9057e-05,3.34e-06,0.0,0 STARLINK-4043,1 52836U 22062G   23323.10744369  .00000334  00000-0  39057-4 0  9991,2 52836  53.2139 212.1301 0001535  90.2623 269.8545 15.08840610 78732,6917.879,95.438,540.805,538.682,0.0
52836.0,STARLINK-4043,PAYLOAD,2023-11-19 21:39:20,15.08851704,0.0001506,53.2143,208.5618,88.8952,271.2212,0.00035133,5.31e-05,0.0,0 STARLINK-4043,1 52836U 22062G   23323.90231788  .00005310  00000-0  35133-3 0  9994,2 52836  53.2143 208.5618 0001506  88.8952 271.2212 15.08851704 78850,6917.845,95.437,540.751,538.668,0.0
52836.0,STARLINK-4043,PAYLOAD,2023-11-20 02:25:29,15.08858728,0.0001501,53.2147,207.6698,87.2827,272.8337,0.0004504,6.891e-05,0.0,0 STARLINK-4043,1 52836U 22062G   23324.10103533  .00006891  00000-0  45040-3 0  9996,2 52836  53.2147 207.6698 0001501  87.2827 272.8337 15.08858728 78882,6917.823,95.436,540.727,538.65,0.0
52836.0,STARLINK-4043,PAYLOAD,2023-11-20 19:54:44,15.08850505,0.0001542,53.2156,204.3995,93.1616,266.9553,0.00017247,2.459e-05,0.0,0 STARLINK-4043,1 52836U 22062G   23324.82967593  .00002459  00000-0  17247-3 0  9993,2 52836  53.2156 204.3995 0001542  93.1616 266.9553 15.08850505 78994,6917.848,95.437,540.78,538.647,0.0
52836.0,STARLINK-4043,PAYLOAD,2023-11-20 21:30:06,15.08851695,0.0001625,53.2167,204.1018,93.4257,266.6921,0.00014381,2.002e-05,0.0,0 STARLINK-4043,1 52836U 22062G   23324.89591430  .00002002  00000-0  14381-3 0  9993,2 52836  53.2167 204.1018 0001625  93.4257 266.6921 15.08851695 79006,6917.845,95.437,540.834,538.585,0.0
52836.0,STARLINK-4043,PAYLOAD,2023-11-21 08:37:48,15.0884362,0.0001668,53.2161,202.0206,84.336,275.7823,3.1851e-06,-2.37e-06,0.0,0 STARLINK-4043,1 52836U 22062G   23325.35959486 -.00000237  00000-0  31851-5 0  9996,2 52836  53.2161 202.0206 0001668  84.3360 275.7823 15.08843620 79075,6917.869,95.437,540.888,538.58,0.0
52836.0,STARLINK-4043,PAYLOAD,2023-11-21 21:20:54,15.08840141,0.0001881,53.2168,199.6454,100.5767,259.5437,-7.8653e-05,-1.54e-05,0.0,0 STARLINK-4043,1 52836U 22062G   23325.88952018 -.00001540  00000-0 -78653-4 0  9997,2 52836  53.2168 199.6454 0001881 100.5767 259.5437 15.08840141 79152,6917.88,95.438,541.046,538.444,0.0
52836.0,STARLINK-4043,PAYLOAD,2023-11-22 19:36:18,15.08847401,0.0001828,53.2165,195.4861,119.8199,240.2975,0.00024733,3.651e-05,0.0,0 STARLINK-4043,1 52836U 22062G   23326.81687560  .00003651  00000-0  24733-3 0  9990,2 52836  53.2165 195.4861 0001828 119.8199 240.2975 15.08847401 79293,6917.858,95.437,540.987,538.458,0.0
52836.0,STARLINK-4043,PAYLOAD,2023-11-22 21:11:41,15.0885015,0.0001728,53.2164,195.1888,115.39,244.7272,0.00027242,4.051e-05,0.0,0 STARLINK-4043,1 52836U 22062G   23326.88311491  .00004051  00000-0  27242-3 0  9997,2 52836  53.2164 195.1888 0001728 115.3900 244.7272 15.08850150 79304,6917.849,95.437,540.91,538.519,0.0
52836.0,STARLINK-4043,PAYLOAD,2023-11-23 14:40:56,15.08838302,0.0001764,53.2158,191.9134,87.0335,273.0859,0.00013753,1.901e-05,0.0,0 STARLINK-4043,1 52836U 22062G   23327.61176246  .00001901  00000-0  13753-3 0  9999,2 52836  53.2158 191.9134 0001764  87.0335 273.0859 15.08838302 79415,6917.886,95.438,540.971,538.53,0.0
52836.0,STARLINK-4043,PAYLOAD,2023-11-23 19:27:05,15.08833099,0.00014,53.2158,191.0188,87.0764,273.0388,9.1289e-06,-1.43e-06,0.0,0 STARLINK-4043,1 52836U 22062G   23327.81048391 -.00000143  00000-0  91289-5 0  9990,2 52836  53.2158 191.0188 0001400  87.0764 273.0388 15.08833099 79446,6917.901,95.438,540.735,538.798,0.0
52836.0,STARLINK-4043,PAYLOAD,2023-11-23 22:37:52,15.08833338,0.000142,53.2151,190.4223,99.5962,260.519,0.00018638,2.679e-05,0.0,0 STARLINK-4043,1 52836U 22062G   23327.94296373  .00002679  00000-0  18638-3 0  9999,2 52836  53.2151 190.4223 0001420  99.5962 260.5190 15.08833338 79462,6917.901,95.438,540.748,538.783,0.0
52836.0,STARLINK-4043,PAYLOAD,2023-11-24 14:31:43,15.08834316,0.0001396,53.2144,187.4493,100.655,259.4599,0.00046733,7.156e-05,0.0,0 STARLINK-4043,1 52836U 22062G   23328.60536922  .00007156  00000-0  46733-3 0  9992,2 52836  53.2144 187.4493 0001396 100.6550 259.4599 15.08834316 79566,6917.898,95.438,540.729,538.797,0.0
52836.0,STARLINK-4043,PAYLOAD,2023-11-24 22:28:39,15.08845418,0.0001415,53.2147,185.963,101.1535,258.9616,0.00062019,9.598e-05,0.0,0 STARLINK-4043,1 52836U 22062G   23328.93656755  .00009598  00000-0  62019-3 0  9992,2 52836  53.2147 185.9630 0001415 101.1535 258.9616 15.08845418 79611,6917.864,95.437,540.708,538.75,0.0
52836.0,STARLINK-4043,PAYLOAD,2023-11-25 00:04:02,15.08848264,0.0001414,53.2148,185.6657,98.1589,261.9564,0.00068149,0.00010577,0.0,0 STARLINK-4043,1 52836U 22062G   23329.00280712  .00010577  00000-0  68149-3 0  9996,2 52836  53.2148 185.6657 0001414  98.1589 261.9564 15.08848264 79620,6917.855,95.437,540.698,538.742,0.0
52836.0,STARLINK-4043,PAYLOAD,2023-11-25 20:44:02,15.08891079,0.0001486,53.2148,181.8008,88.1376,271.9786,0.0016495,0.00026098,0.0,0 STARLINK-4043,1 52836U 22062G   23329.86391257  .00026098  00000-0  16495-2 0  9998,2 52836  53.2148 181.8008 0001486  88.1376 271.9786 15.08891079 79753,6917.724,95.434,540.617,538.561,0.0
52836.0,STARLINK-4043,PAYLOAD,2023-11-25 23:54:47,15.08902138,0.0001448,53.2145,181.2054,93.426,266.6898,0.0018715,0.00029673,0.0,0 STARLINK-4043,1 52836U 22062G   23329.99638672  .00029673  00000-0  18715-2 0  9996,2 52836  53.2145 181.2054 0001448  93.4260 266.6898 15.08902138 79770,6917.69,95.434,540.557,538.554,0.0
52836.0,STARLINK-4043,PAYLOAD,2023-11-26 18:59:25,15.08834355,0.0002149,53.2146,177.6366,11.49,348.614,-0.00071357,-0.00011625,0.0,0 STARLINK-4043,1 52836U 22062G   23330.79126833 -.00011625  00000-0 -71357-3 0  9999,2 52836  53.2146 177.6366 0002149  11.4900 348.6140 15.08834355 79895,6917.898,95.438,541.249,538.276,0.0
52836.0,STARLINK-4043,PAYLOAD,2023-11-27 14:04:04,15.08812068,0.0001523,53.216,174.0646,83.104,277.0125,0.0006848,0.00010619,0.0,0 STARLINK-4043,1 52836U 22062G   23331.58616444  .00010619  00000-0  68480-3 0  9992,2 52836  53.2160 174.0646 0001523  83.1040 277.0125 15.08812068 80010,6917.966,95.439,540.884,538.777,0.0
52836.0,STARLINK-4043,PAYLOAD,2023-11-27 18:50:14,15.08817242,0.0001616,53.2155,173.1742,83.0454,277.0721,0.00066971,0.0001038,0.0,0 STARLINK-4043,1 52836U 22062G   23331.78488721  .00010380  00000-0  66971-3 0  9997,2 52836  53.2155 173.1742 0001616  83.0454 277.0721 15.08817242 80046,6917.95,95.439,540.933,538.697,0.0
